ONEWEB-0371             
1 49297U 21090U   25175.78948588  .00000039  00000+0  65295-4 0  9992
2 49297  87.9213  16.0134 0001944  88.4902 271.6453 13.19727377179313
ONEWEB-0372             
1 49298U 21090V   25175.89230044 -.00000135  00000+0 -36510-3 0  9992
2 49298  87.9260 345.6135 0001959  97.6127 262.5229 13.20771163182672
ONEWEB-0373             
1 49299U 21090W   25175.91927473  .00000019  00000+0  14933-4 0  9990
2 49299  87.9249 345.6190 0001501  96.5183 263.6121 13.20773095183865
ONEWEB-0374             
1 49300U 21090X   25175.74572080  .00000325  00000+0  84169-3 0  9991
2 49300  87.9038   0.8138 0001320 102.7655 257.3622 13.14501911180603
ONEWEB-0375             
1 49301U 21090Y   25175.52786552 -.00000074  00000+0 -21330-3 0  9993
2 49301  87.9263 345.6748 0001251  83.1901 276.9375 13.20772529183315
ONEWEB-0376             
1 49302U 21090Z   25175.78791417  .00000036  00000+0  58563-4 0  9993
2 49302  87.9206  15.9978 0001988  93.6275 266.5085 13.19726889179316
ONEWEB-0377             
1 49303U 21090AA  25175.74108824  .00000105  00000+0  22670-3 0  9990
2 49303  87.9263 345.6253 0001867  85.2974 274.8372 13.20772284183338
ONEWEB-0378             
1 49304U 21090AB  25175.76315963 -.00000017  00000+0 -73749-4 0  9995
2 49304  87.9267 345.6289 0001672  94.6551 265.4774 13.20770173182607
